<?xml version="1.0" encoding="UTF-8"?>
<kml xmlns="http://www.opengis.net/kml/2.2">
  <Document>
    <name>DI Yogyakarta</name>
    <Style id="poly-000000-1200-77-nodesc-normal">
      <LineStyle>
        <color>ff000000</color>
        <width>1.2</width>
      </LineStyle>
      <PolyStyle>
        <color>4d000000</color>
        <fill>1</fill>
        <outline>1</outline>
      </PolyStyle>
      <BalloonStyle>
        <text><![CDATA[<h3>$[name]</h3>]]></text>
      </BalloonStyle>
    </Style>
    <Style id="poly-000000-1200-77-nodesc-highlight">
      <LineStyle>
        <color>ff000000</color>
        <width>1.8</width>
      </LineStyle>
      <PolyStyle>
        <color>4d000000</color>
        <fill>1</fill>
        <outline>1</outline>
      </PolyStyle>
      <BalloonStyle>
        <text><![CDATA[<h3>$[name]</h3>]]></text>
      </BalloonStyle>
    </Style>
    <StyleMap id="poly-000000-1200-77-nodesc">
      <Pair>
        <key>normal</key>
        <styleUrl>#poly-000000-1200-77-nodesc-normal</styleUrl>
      </Pair>
      <Pair>
        <key>highlight</key>
        <styleUrl>#poly-000000-1200-77-nodesc-highlight</styleUrl>
      </Pair>
    </StyleMap>
    <Placemark>
      <name>DI Yogyakarta</name>
      <styleUrl>#poly-000000-1200-77-nodesc</styleUrl>
      <Polygon>
        <outerBoundaryIs>
          <LinearRing>
            <tessellate>1</tessellate>
            <coordinates>
              110.0315262,-7.8981498,0
              110.0754715,-7.9144726,0
              110.1221634,-7.9294347,0
              110.1812149,-7.9607172,0
              110.2182938,-7.9824775,0
              110.3350235,-8.0083164,0
              110.3707291,-8.0640684,0
              110.4325272,-8.0899021,0
              110.5423905,-8.1279698,0
              110.591829,-8.1347672,0
              110.6797196,-8.1714713,0
              110.7140519,-8.1728307,0
              110.742891,-8.2000166,0
              110.7868363,-8.1850646,0
              110.8115555,-8.2000166,0
              110.8362748,-8.178268,0
              110.8156754,-8.1605964,0
              110.828035,-8.142924,0
              110.8170487,-8.1347672,0
              110.7937027,-8.1633151,0
              110.7813431,-8.1565182,0
              110.7909562,-8.1157342,0
              110.7772232,-8.0912617,0
              110.7785965,-8.0681475,0
              110.7456375,-8.0259947,0
              110.7607437,-7.9851975,0
              110.7676102,-7.9471164,0
              110.7662369,-7.9117522,0
              110.7676102,-7.8872675,0
              110.7882096,-7.8641418,0
              110.7785965,-7.8464565,0
              110.7882096,-7.830131,0
              110.7676102,-7.8165259,0
              110.7593705,-7.8314915,0
              110.7415177,-7.821968,0
              110.7264115,-7.7933963,0
              110.7003189,-7.8124443,0
              110.6687333,-7.8029204,0
              110.6852127,-7.7879538,0
              110.6742264,-7.7825113,0
              110.6563736,-7.804281,0
              110.6495072,-7.7947569,0
              110.6316544,-7.8083627,0
              110.611055,-7.7961175,0
              110.6000687,-7.8097232,0
              110.578096,-7.8083627,0
              110.5835892,-7.7879538,0
              110.55887,-7.7770687,0
              110.5574967,-7.7947569,0
              110.5382706,-7.8001992,0
              110.5314041,-7.7825113,0
              110.5176712,-7.7838719,0
              110.5066849,-7.7675439,0
              110.492952,-7.7689046,0
              110.4654862,-7.6328141,0
              110.4627396,-7.5729205,0
              110.4476334,-7.5402477,0
              110.4201676,-7.5579458,0
              110.3995682,-7.5906172,0
              110.3020645,-7.6627578,0
              110.2704789,-7.7103911,0
              110.2608658,-7.6967821,0
              110.2594925,-7.6437029,0
              110.2443863,-7.6545915,0
              110.2100541,-7.6505083,0
              110.1949479,-7.6409808,0
              110.1867081,-7.6532305,0
              110.148256,-7.6437029,0
              110.1207901,-7.6695628,0
              110.1413895,-7.6899774,0
              110.1358963,-7.7430508,0
              110.1221634,-7.758019,0
              110.1194168,-7.775708,0
              110.1015641,-7.7838719,0
              110.0754715,-7.8124443,0
              110.0631119,-7.819247,0
              110.0699784,-7.8423752,0
              110.0452591,-7.8546191,0
              110.0438858,-7.872304,0
              110.0315262,-7.8981498,0
            </coordinates>
          </LinearRing>
        </outerBoundaryIs>
      </Polygon>
    </Placemark>
  </Document>
</kml>
