<?xml version="1.0" encoding="UTF-8"?>
<kml xmlns="http://www.opengis.net/kml/2.2">
  <Document>
    <name>kota administrasi Depok</name>
    <Style id="poly-000000-1200-77-nodesc-normal">
      <LineStyle>
        <color>ff000000</color>
        <width>1.2</width>
      </LineStyle>
      <PolyStyle>
        <color>4d000000</color>
        <fill>1</fill>
        <outline>1</outline>
      </PolyStyle>
      <BalloonStyle>
        <text><![CDATA[<h3>$[name]</h3>]]></text>
      </BalloonStyle>
    </Style>
    <Style id="poly-000000-1200-77-nodesc-highlight">
      <LineStyle>
        <color>ff000000</color>
        <width>1.8</width>
      </LineStyle>
      <PolyStyle>
        <color>4d000000</color>
        <fill>1</fill>
        <outline>1</outline>
      </PolyStyle>
      <BalloonStyle>
        <text><![CDATA[<h3>$[name]</h3>]]></text>
      </BalloonStyle>
    </Style>
    <StyleMap id="poly-000000-1200-77-nodesc">
      <Pair>
        <key>normal</key>
        <styleUrl>#poly-000000-1200-77-nodesc-normal</styleUrl>
      </Pair>
      <Pair>
        <key>highlight</key>
        <styleUrl>#poly-000000-1200-77-nodesc-highlight</styleUrl>
      </Pair>
    </StyleMap>
    <Placemark>
      <name>Kota administrasi depok</name>
      <styleUrl>#poly-000000-1200-77-nodesc</styleUrl>
      <Polygon>
        <outerBoundaryIs>
          <LinearRing>
            <tessellate>1</tessellate>
            <coordinates>
              106.7691859,-6.3607326,0
              106.7616328,-6.3573205,0
              106.7527064,-6.3620974,0
              106.7135676,-6.3586853,0
              106.7204341,-6.3641447,0
              106.734167,-6.3723336,0
              106.7451533,-6.3805224,0
              106.7485865,-6.39417,0
              106.7403468,-6.4078173,0
              106.7403468,-6.4166879,0
              106.7513331,-6.4296522,0
              106.732107,-6.4296522,0
              106.732107,-6.439887,0
              106.7396601,-6.4426163,0
              106.7540797,-6.4467101,0
              106.7643794,-6.4467101,0
              106.7760524,-6.4467101,0
              106.7787989,-6.4569446,0
              106.7911586,-6.4569446,0
              106.7911586,-6.4426163,0
              106.7973384,-6.4392047,0
              106.8021449,-6.448757,0
              106.8090113,-6.460356,0
              106.8241175,-6.4624029,0
              106.842657,-6.4562623,0
              106.8467768,-6.4473924,0
              106.8570765,-6.4473924,0
              106.8557032,-6.4671788,0
              106.8749293,-6.4719547,0
              106.8776759,-6.460356,0
              106.8845423,-6.4453455,0
              106.8920954,-6.4269229,0
              106.9023951,-6.4194172,0
              106.9099482,-6.4180526,0
              106.916128,-6.3989466,0
              106.8989619,-6.3975819,0
              106.9078883,-6.3832519,0
              106.9147547,-6.3757456,0
              106.9195613,-6.3661919,0
              106.9058414,-6.3595974,0
              106.9010218,-6.3690622,0
              106.8824954,-6.3684688,0
              106.8687495,-6.3627798,0
              106.8749293,-6.3586853,0
              106.8730659,-6.3505615,0
              106.8598231,-6.3607326,0
              106.8504066,-6.3369126,0
              106.8366737,-6.33896,0
              106.8421668,-6.3512439,0
              106.8304939,-6.3567033,0
              106.8174476,-6.3539736,0
              106.8110843,-6.3691512,0
              106.7987117,-6.3716512,0
              106.7932185,-6.3641447,0
              106.7945918,-6.354049,0
              106.7987116,-6.3472247,0
              106.8055781,-6.3307053,0
              106.8117579,-6.317056,0
              106.7993983,-6.317056,0
              106.7789955,-6.3164387,0
              106.7801722,-6.3225157,0
              106.776739,-6.3382123,0
              106.7719325,-6.3484489,0
              106.7691859,-6.3607326,0
            </coordinates>
          </LinearRing>
        </outerBoundaryIs>
      </Polygon>
    </Placemark>
  </Document>
</kml>
