<?xml version="1.0" encoding="UTF-8"?>
<kml xmlns="http://www.opengis.net/kml/2.2">
  <Document>
    <name>Kota DKI Jakarta</name>
    <Style id="poly-000000-1200-77-nodesc-normal">
      <LineStyle>
        <color>ff000000</color>
        <width>1.2</width>
      </LineStyle>
      <PolyStyle>
        <color>4d000000</color>
        <fill>1</fill>
        <outline>1</outline>
      </PolyStyle>
      <BalloonStyle>
        <text><![CDATA[<h3>$[name]</h3>]]></text>
      </BalloonStyle>
    </Style>
    <Style id="poly-000000-1200-77-nodesc-highlight">
      <LineStyle>
        <color>ff000000</color>
        <width>1.8</width>
      </LineStyle>
      <PolyStyle>
        <color>4d000000</color>
        <fill>1</fill>
        <outline>1</outline>
      </PolyStyle>
      <BalloonStyle>
        <text><![CDATA[<h3>$[name]</h3>]]></text>
      </BalloonStyle>
    </Style>
    <StyleMap id="poly-000000-1200-77-nodesc">
      <Pair>
        <key>normal</key>
        <styleUrl>#poly-000000-1200-77-nodesc-normal</styleUrl>
      </Pair>
      <Pair>
        <key>highlight</key>
        <styleUrl>#poly-000000-1200-77-nodesc-highlight</styleUrl>
      </Pair>
    </StyleMap>
    <Placemark>
      <name>DKI Jakarta</name>
      <styleUrl>#poly-000000-1200-77-nodesc</styleUrl>
      <Polygon>
        <outerBoundaryIs>
          <LinearRing>
            <tessellate>1</tessellate>
            <coordinates>
              106.7259402,-6.0851924,0
              106.7087741,-6.1002133,0
              106.6874881,-6.0967995,0
              106.6874881,-6.1111373,0
              106.6998477,-6.1138683,0
              106.6881747,-6.1268402,0
              106.6943545,-6.1425426,0
              106.6874881,-6.1473215,0
              106.6909213,-6.175994,0
              106.7293735,-6.1937429,0
              106.7231937,-6.2087607,0
              106.7170138,-6.2251432,0
              106.7451663,-6.2251432,0
              106.7451663,-6.2408427,0
              106.7561526,-6.2551766,0
              106.7527194,-6.2749704,0
              106.7643924,-6.2838433,0
              106.7726321,-6.300906,0
              106.7789955,-6.3164387,0
              106.8165774,-6.3159207,0
              106.7994113,-6.3329824,0
              106.7987116,-6.3472247,0
              106.7945918,-6.354049,0
              106.7932315,-6.3691512,0
              106.8110843,-6.3691512,0
              106.8174476,-6.3539736,0
              106.8304939,-6.3567033,0
              106.8421668,-6.3512439,0
              106.8366737,-6.33896,0
              106.8504066,-6.3369126,0
              106.8586463,-6.3560209,0
              106.863943,-6.3581436,0
              106.8730659,-6.3505615,0
              106.8799323,-6.3587506,0
              106.8824954,-6.3684688,0
              106.9010218,-6.3690622,0
              106.9058414,-6.3595974,0
              106.9195612,-6.3554139,0
              106.916141,-6.3425367,0
              106.9223208,-6.3322999,0
              106.9209476,-6.322063,0
              106.9257541,-6.305001,0
              106.9188876,-6.294081,0
              106.9127078,-6.2988585,0
              106.9079013,-6.2797481,0
              106.9127078,-6.2722403,0
              106.9030948,-6.2674625,0
              106.9092746,-6.2579069,0
              106.9223208,-6.253129,0
              106.9381137,-6.253129,0
              106.9449801,-6.2510813,0
              106.9477267,-6.2346995,0
              106.9504733,-6.220365,0
              106.9614596,-6.2142216,0
              106.9690127,-6.1964734,0
              106.9758792,-6.1787246,0
              106.9751926,-6.1575618,0
              106.9779391,-6.1418599,0
              106.9710727,-6.1411772,0
              106.9710727,-6.1234265,0
              106.9731326,-6.1022616,0
              106.9676395,-6.0886063,0
              106.937427,-6.1002133,0
              106.9113345,-6.0995305,0
              106.8776889,-6.0940684,0
              106.8625827,-6.11182,0
              106.8474765,-6.1206956,0
              106.8316836,-6.1206956,0
              106.8255038,-6.1138683,0
              106.8145175,-6.1138683,0
              106.8110843,-6.1220611,0
              106.8055911,-6.1104546,0
              106.8055911,-6.0961167,0
              106.7966647,-6.0967995,0
              106.7973514,-6.1090891,0
              106.786365,-6.1097718,0
              106.7637057,-6.0967995,0
              106.7513461,-6.1022616,0
              106.7259402,-6.0851924,0
            </coordinates>
          </LinearRing>
        </outerBoundaryIs>
      </Polygon>
    </Placemark>
  </Document>
</kml>
