<?xml version="1.0" encoding="UTF-8"?>
<kml xmlns="http://www.opengis.net/kml/2.2">
  <Document>
    <name>Ragunan</name>
    <Style id="poly-000000-1200-77-nodesc-normal">
      <LineStyle>
        <color>ff000000</color>
        <width>1.2</width>
      </LineStyle>
      <PolyStyle>
        <color>4d000000</color>
        <fill>1</fill>
        <outline>1</outline>
      </PolyStyle>
      <BalloonStyle>
        <text><![CDATA[<h3>$[name]</h3>]]></text>
      </BalloonStyle>
    </Style>
    <Style id="poly-000000-1200-77-nodesc-highlight">
      <LineStyle>
        <color>ff000000</color>
        <width>1.8</width>
      </LineStyle>
      <PolyStyle>
        <color>4d000000</color>
        <fill>1</fill>
        <outline>1</outline>
      </PolyStyle>
      <BalloonStyle>
        <text><![CDATA[<h3>$[name]</h3>]]></text>
      </BalloonStyle>
    </Style>
    <StyleMap id="poly-000000-1200-77-nodesc">
      <Pair>
        <key>normal</key>
        <styleUrl>#poly-000000-1200-77-nodesc-normal</styleUrl>
      </Pair>
      <Pair>
        <key>highlight</key>
        <styleUrl>#poly-000000-1200-77-nodesc-highlight</styleUrl>
      </Pair>
    </StyleMap>
    <Placemark>
      <name>Kebun binatang ragunan</name>
      <styleUrl>#poly-000000-1200-77-nodesc</styleUrl>
      <Polygon>
        <outerBoundaryIs>
          <LinearRing>
            <tessellate>1</tessellate>
            <coordinates>
              106.8161787,-6.3052519,0
              106.8168653,-6.3070861,0
              106.8164791,-6.3080245,0
              106.8158783,-6.3080245,0
              106.8155779,-6.3096027,0
              106.8158783,-6.3103279,0
              106.8164362,-6.3171953,0
              106.8181528,-6.3176219,0
              106.8183244,-6.3171953,0
              106.8236459,-6.3175792,0
              106.8236459,-6.3180058,0
              106.8251051,-6.3177925,0
              106.8258775,-6.3114796,0
              106.8269933,-6.3115222,0
              106.8273367,-6.3082804,0
              106.8247188,-6.3082804,0
              106.8248476,-6.3059344,0
              106.823131,-6.3061903,0
              106.822616,-6.3066595,0
              106.8207277,-6.3065315,0
              106.8206848,-6.3056358,0
              106.8161787,-6.3052519,0
            </coordinates>
          </LinearRing>
        </outerBoundaryIs>
      </Polygon>
    </Placemark>
  </Document>
</kml>
