<?xml version="1.0" encoding="UTF-8"?>
<kml xmlns="http://www.opengis.net/kml/2.2">
  <Document>
    <name>TMII</name>
    <Style id="poly-000000-1200-77-nodesc-normal">
      <LineStyle>
        <color>ff000000</color>
        <width>1.2</width>
      </LineStyle>
      <PolyStyle>
        <color>4d000000</color>
        <fill>1</fill>
        <outline>1</outline>
      </PolyStyle>
      <BalloonStyle>
        <text><![CDATA[<h3>$[name]</h3>]]></text>
      </BalloonStyle>
    </Style>
    <Style id="poly-000000-1200-77-nodesc-highlight">
      <LineStyle>
        <color>ff000000</color>
        <width>1.8</width>
      </LineStyle>
      <PolyStyle>
        <color>4d000000</color>
        <fill>1</fill>
        <outline>1</outline>
      </PolyStyle>
      <BalloonStyle>
        <text><![CDATA[<h3>$[name]</h3>]]></text>
      </BalloonStyle>
    </Style>
    <StyleMap id="poly-000000-1200-77-nodesc">
      <Pair>
        <key>normal</key>
        <styleUrl>#poly-000000-1200-77-nodesc-normal</styleUrl>
      </Pair>
      <Pair>
        <key>highlight</key>
        <styleUrl>#poly-000000-1200-77-nodesc-highlight</styleUrl>
      </Pair>
    </StyleMap>
    <Placemark>
      <name>taman mini indonesia indah</name>
      <styleUrl>#poly-000000-1200-77-nodesc</styleUrl>
      <MultiGeometry>
        <Polygon>
          <outerBoundaryIs>
            <LinearRing>
              <tessellate>1</tessellate>
              <coordinates>
                106.9057676,-6.2993933,0
                106.9065391,-6.2993324,0
                106.9057666,-6.2993324,0
                106.9057676,-6.2993933,0
              </coordinates>
            </LinearRing>
          </outerBoundaryIs>
        </Polygon>
        <Polygon>
          <outerBoundaryIs>
            <LinearRing>
              <tessellate>1</tessellate>
              <coordinates>
                106.9057676,-6.2993933,0
                106.9011318,-6.2997589,0
                106.9011318,-6.2986499,0
                106.893407,-6.2982233,0
                106.8933212,-6.2993324,0
                106.8922054,-6.2995883,0
                106.8922054,-6.2979674,0
                106.8891155,-6.2978821,0
                106.8892013,-6.2990764,0
                106.8868839,-6.2989058,0
                106.8866264,-6.2977968,0
                106.8833648,-6.2977114,0
                106.883794,-6.2996736,0
                106.8841373,-6.3012093,0
                106.8852531,-6.3029155,0
                106.8869697,-6.3043658,0
                106.8892872,-6.3043658,0
                106.8910038,-6.3053895,0
                106.8932354,-6.3062426,0
                106.8957245,-6.3064986,0
                106.8972694,-6.3064986,0
                106.8989002,-6.3066692,0
                106.9001018,-6.3062426,0
                106.9013034,-6.3064986,0
                106.9022476,-6.3047924,0
                106.9058525,-6.304707,0
                106.9057676,-6.2993933,0
              </coordinates>
            </LinearRing>
          </outerBoundaryIs>
        </Polygon>
      </MultiGeometry>
    </Placemark>
  </Document>
</kml>
